[{"OBJECT_NAME":"STARLINK-3113","OBJECT_ID":"2021-115M","EPOCH":"2026-03-09T12:12:22.797216","MEAN_MOTION":15.08842889,"ECCENTRICITY":0.00012226,"INCLINATION":53.2161,"RA_OF_ASC_NODE":159.8171,"ARG_OF_PERICENTER":105.186,"MEAN_ANOMALY":254.9268,"EPHEMERIS_TYPE":0,"CLASSIFICATION_TYPE":"U","NORAD_CAT_ID":49735,"ELEMENT_SET_NO":999,"REV_AT_EPOCH":23536,"BSTAR":-3.4922094e-5,"MEAN_MOTION_DOT":-8.44e-6,"MEAN_MOTION_DDOT":0},{"OBJECT_NAME":"CZ-6A DEB","OBJECT_ID":"2024-140FV","EPOCH":"2026-03-09T14:13:09.917760","MEAN_MOTION":15.12617909,"ECCENTRICITY":0.0033796,"INCLINATION":89.006,"RA_OF_ASC_NODE":281.0752,"ARG_OF_PERICENTER":172.4402,"MEAN_ANOMALY":187.7356,"EPHEMERIS_TYPE":0,"CLASSIFICATION_TYPE":"U","NORAD_CAT_ID":60794,"ELEMENT_SET_NO":999,"REV_AT_EPOCH":8371,"BSTAR":0.0056743,"MEAN_MOTION_DOT":0.0010168,"MEAN_MOTION_DDOT":0}]
